#aV2006  1  5  0  0   .00000000      96 DD+AD WGS84 FIT  NGA
## 1356 345600.00000000   900.00000000 53740  .0000000000000
+   29     1  2  3  4  5  6  7  8  9 10 11 13 14 15 16 17 18
+         19 20 21 22 23 24 25 26 27 28 29 30  0  0  0  0  0
+          0  0  0  0  0  0  0  0  0  0  0  0  0  0  0  0  0
+          0  0  0  0  0  0  0  0  0  0  0  0  0  0  0  0  0
+          0  0  0  0  0  0  0  0  0  0  0  0  0  0  0  0  0
++         0  0  0  0  0  0  0  0  0  0  0  0  0  0  0  0  0
++         0  0  0  0  0  0  0  0  0  0  0  0  0  0  0  0  0
++         0  0  0  0  0  0  0  0  0  0  0  0  0  0  0  0  0
++         0  0  0  0  0  0  0  0  0  0  0  0  0  0  0  0  0
++         0  0  0  0  0  0  0  0  0  0  0  0  0  0  0  0  0
%c cc cc ccc ccc cccc cccc cccc cccc ccccc ccccc ccccc ccccc
%c cc cc ccc ccc cccc cccc cccc cccc ccccc ccccc ccccc ccccc
%f  0.0000000  0.000000000  0.00000000000  0.000000000000000
%f  0.0000000  0.000000000  0.00000000000  0.000000000000000
%i    0    0    0    0      0      0      0      0         0
%i    0    0    0    0      0      0      0      0         0
/*      NGA, ST. LOUIS,MO.                                  
/*   EPHEMERIS COMPUTED FROM  3 DAYS OF DATA                
/* CCCCCCCCCCCCCCCCCCCCCCCCCCCCCCCCCCCCCCCCCCCCCCCCCCCCCCCCC
/* CCCCCCCCCCCCCCCCCCCCCCCCCCCCCCCCCCCCCCCCCCCCCCCCCCCCCCCCC
*  2006  1  5  2 45   .00000000                                                 
P  1 -17216.139592  -8460.749369 -18191.506863     28.972193                    
V  1  -8829.297562 -21733.339106  18220.948953       .026478                    
P  2  18636.058342  -4419.671353 -18605.886361    -22.915026                    
V  2 -11211.536997  20320.950478 -16461.066132       .009809                    
P  3 -18033.728404  -1316.613096  19385.327821     64.065667                    
V  3 -12056.187340 -21948.096827 -12305.718419       .030409                    
P  4  13641.665066   7325.249192 -21621.495082    108.070663                    
V  4 -15327.951399  22717.540924  -1626.381298       .122046                    
P  5  13119.519114 -13974.469645 -18511.607388    456.174686                    
V  5  23292.126902   1179.997169  15946.944780       .224645                    
P  6  -4813.508977 -24030.020282  -9944.525450    186.562403                    
V  6   9201.307415   9750.476284 -27574.733208       .436565                    
P  7  17851.030579  17356.615395  -8998.309611    463.226922                    
V  7   3234.952968  12041.997385  28176.773341       .100391                    
P  8   7061.453783  14611.571852  20788.517984    -52.398449                    
V  8 -16254.340176  21343.082995  -9799.962320      -.013492                    
P  9  14815.217849 -21660.556334   2325.903786      2.300916                    
V  9    858.403889   4728.737571  31728.801016       .016013                    
P 10  25854.832043  -2384.951321   6248.699454     76.576456                    
V 10   7789.892574   2578.568064 -30567.710438       .006509                    
P 11 -13156.499171  22735.672407   2883.398125    296.641629                    
V 11  -2842.283710  -5513.789176  30177.863738       .030394                    
P 13   5494.356786  24527.204438  -8744.324431     33.125569                    
V 13  -6266.353702  -9135.240542 -29752.896252       .022212                    
P 14 -15806.354137 -19800.075641  -7982.771320    -21.466117                    
V 14  -2853.096105  -9969.677560  30068.918120       .005286                    
P 15  -5930.648899 -15733.003556  20300.753902    545.000848                    
V 15  16858.554796 -20175.999904 -10982.715953       .058121                    
P 16 -26510.826248  -2089.287099   -764.489921     20.516835                    
V 16   1220.182181  -2648.413841 -31705.223691       .015471                    
P 17  15518.245822  20683.882706  -6266.023143     19.033764                    
V 17   1236.559344   8252.295458  30347.295127       .102140                    
P 18  -5255.421103 -15388.105117  21145.422647   -212.894049                    
V 18  26512.469194   1975.336135   7777.135780      -.023672                    
P 19 -11057.911242  11815.896963  21156.011878    -24.253133                    
V 19 -11339.785691 -24123.556797   7611.892452       .006395                    
P 20 -12584.235934  13106.653495 -19442.130149    -36.140697                    
V 20 -24453.808982  -2339.959787  14335.404818       .010331                    
P 21   1643.064878 -21447.555946  15283.383234    165.015368                    
V 21  13461.700989 -14468.083562 -22304.538436       .037742                    
P 22 -18434.060325 -12367.398937  14744.963393     59.984582                    
V 22  18571.625591   -190.549354  23316.791534       .020752                    
P 23  -3948.727065  19282.574819 -17848.652698    155.949858                    
V 23 -11694.160020 -19323.032073 -18526.768290      -.016731                    
P 24   1607.123292  19156.379749 -17980.170839     74.889650                    
V 24 -15140.965716  17941.308811  17755.067544       .031171                    
P 25 -15578.268023  -2461.555259 -20985.092566   -120.275403                    
V 25  12315.094120 -24702.868419  -6033.319386     -1.091722                    
P 26  12971.781849  -6334.414137  21927.011873     -9.520286                    
V 26  12690.473483  25697.186948    485.372230      -.074296                    
P 27    194.489277  21806.588488  15484.102533     30.176737                    
V 27 -11138.133840  15283.159060 -22602.954580       .015769                    
P 28  16121.351115  13060.320533  17036.768077     35.731940                    
V 28 -21058.193820     71.130667  19839.625391      -.006668                    
P 29  15179.159394  -2389.719574  21944.341570    486.592063                    
V 29  12416.505035  24157.698299  -5796.484347       .145595                    
P 30   2179.706805 -15629.021173 -21633.465999     11.097217                    
V 30  26884.992223    730.847749   2322.313896       .055280                    
EOF
